NORAD_CAT_ID,OBJECT_NAME,OBJECT_TYPE,EPOCH,MEAN_MOTION,ECCENTRICITY,INCLINATION,RA_OF_ASC_NODE,ARG_OF_PERICENTER,MEAN_ANOMALY,BSTAR,MEAN_MOTION_DOT,MEAN_MOTION_DDOT,TLE_LINE0,TLE_LINE1,TLE_LINE2,SEMIMAJOR_AXIS,PERIOD,APOGEE,PERIGEE,DECAYED
53787.0,STARLINK-4743,PAYLOAD,2022-09-30 06:00:02,15.73225269,0.0001424,53.2163,172.1211,157.7941,9.8194,0.00029711,0.00041328,0.0,0 STARLINK-4743,1 53787U 22111Q   22273.25002315  .00041328  00000-0  29711-3 0  9992,2 53787  53.2163 172.1211 0001424 157.7941   9.8194 15.73225269  2951,6727.823,91.532,350.646,348.73,0.0
53787.0,STARLINK-4743,PAYLOAD,2022-09-30 14:00:01,15.73193134,0.0001668,53.2166,170.4695,156.8752,99.6605,0.00040209,0.00056173,0.0,0 STARLINK-4743,1 53787U 22111Q   22273.58334491  .00056173  00000-0  40209-3 0  9990,2 53787  53.2166 170.4695 0001668 156.8752  99.6605 15.73193134  1308,6727.915,91.534,350.902,348.658,0.0
53787.0,STARLINK-4743,PAYLOAD,2022-09-30 16:00:00,15.73182753,0.0001757,53.2167,170.0569,154.468,214.3066,0.00067262,0.0009477999999999,0.0,0 STARLINK-4743,1 53787U 22111Q   22273.66667824  .00094780  00000-0  67262-3 0  9992,2 53787  53.2167 170.0569 0001757 154.4680 214.3066 15.73182753  3010,6727.944,91.534,350.991,348.62699999999984,0.0
53787.0,STARLINK-4743,PAYLOAD,2022-09-30 22:00:00,15.73302338,0.0001658,53.2167,168.8212,149.5305,195.9674,-0.00048653,-0.00068648,0.0,0 STARLINK-4743,1 53787U 22111Q   22273.91667824 -.00068648  00000-0 -48653-3 0  9999,2 53787  53.2167 168.8212 0001658 149.5305 195.9674 15.73302338  3055,6727.603,91.527,350.584,348.353,0.0
53787.0,STARLINK-4743,PAYLOAD,2022-10-01 14:00:01,15.73200165,0.0001821,53.2164,165.5208,149.8448,13.6411,3.2602e-05,3.957e-05,0.0,0 STARLINK-4743,1 53787U 22111Q   22274.58334491  .00003957  00000-0  32602-4 0  9992,2 53787  53.2164 165.5208 0001821 149.8448  13.6411 15.73200165  1300,6727.895,91.533,350.985,348.535,0.0
53787.0,STARLINK-4743,PAYLOAD,2022-10-01 22:00:00,15.73216665,0.0001674,53.2163,163.873,149.9162,102.4972,-0.0008271,-0.0011520999999999,0.0,0 STARLINK-4743,1 53787U 22111Q   22274.91667824 -.00115210  00000-0 -82710-3 0  9990,2 53787  53.2163 163.8730 0001674 149.9162 102.4972 15.73216665  3213,6727.848000000001,91.532,350.839,348.586,0.0
53787.0,STARLINK-4743,PAYLOAD,2022-10-02 06:00:00,15.73128499,0.0001476,53.2159,162.2239,155.9124,185.4045,0.00049646,0.00069419,0.0,0 STARLINK-4743,1 53787U 22111Q   22275.25001157  .00069419  00000-0  49646-3 0  9997,2 53787  53.2159 162.2239 0001476 155.9124 185.4045 15.73128499  3264,6728.099,91.537,350.957,348.971,0.0
53787.0,STARLINK-4743,PAYLOAD,2022-10-02 14:00:01,15.73152642,0.000176,53.2163,160.5725,160.4771,269.7172,0.00086669,0.00122556,0.0,0 STARLINK-4743,1 53787U 22111Q   22275.58334491  .00122556  00000-0  86669-3 0  9991,2 53787  53.2163 160.5725 0001760 160.4771 269.7172 15.73152642  1302,6728.03,91.536,351.079,348.711,0.0
53787.0,STARLINK-4743,PAYLOAD,2022-10-02 22:00:00,15.73261258,0.0001598,53.2164,158.9247,154.4591,4.646,-0.00039614,-0.00055995,0.0,0 STARLINK-4743,1 53787U 22111Q   22275.91667824 -.00055995  00000-0 -39614-3 0  9999,2 53787  53.2164 158.9247 0001598 154.4591   4.6460 15.73261258  1305,6727.721,91.53,350.661,348.51,0.0
53787.0,STARLINK-4743,PAYLOAD,2022-10-03 06:00:00,15.73264458,0.0001579,53.2164,157.2753,151.4221,96.6519,-6.6598e-06,-1.558e-05,0.0,0 STARLINK-4743,1 53787U 22111Q   22276.25001157 -.00001558  00000-0 -66598-5 0  9997,2 53787  53.2164 157.2753 0001579 151.4221  96.6519 15.73264458  3421,6727.7109999999975,91.529,350.639,348.514,0.0
53787.0,STARLINK-4743,PAYLOAD,2022-10-03 14:00:01,15.73235641,0.0001889,53.2165,155.624,149.7397,187.3574,0.00019299,0.00026592,0.0,0 STARLINK-4743,1 53787U 22111Q   22276.58334491  .00026592  00000-0  19299-3 0  9990,2 53787  53.2165 155.6240 0001889 149.7397 187.3574 15.73235641  1309,6727.794,91.531,350.92900000000014,348.38800000000015,0.0
53787.0,STARLINK-4743,PAYLOAD,2022-10-03 22:00:00,15.73242501,0.0001799,53.2163,153.9765,147.144,278.8748,-0.00039296,-0.00055511,0.0,0 STARLINK-4743,1 53787U 22111Q   22276.91667824 -.00055511  00000-0 -39296-3 0  9990,2 53787  53.2163 153.9765 0001799 147.1440 278.8748 15.73242501  1303,6727.774,91.531,350.849,348.42900000000014,0.0
53787.0,STARLINK-4743,PAYLOAD,2022-10-04 14:00:01,15.73164023,0.0001862,53.2163,150.6757,157.7595,86.1774,0.00026041,0.00036028,0.0,0 STARLINK-4743,1 53787U 22111Q   22277.58334491  .00036028  00000-0  26041-3 0  9999,2 53787  53.2163 150.6757 0001862 157.7595  86.1774 15.73164023  1308,6727.998000000001,91.535,351.116,348.61,0.0
53787.0,STARLINK-4743,PAYLOAD,2022-10-04 16:00:00,15.73154232,0.0001925,53.2165,150.2637,157.74,198.4242,0.00050587,0.00070839,0.0,0 STARLINK-4743,1 53787U 22111Q   22277.66667824  .00070839  00000-0  50587-3 0  9997,2 53787  53.2165 150.2637 0001925 157.7400 198.4242 15.73154232  3645,6728.026,91.536,351.186,348.596,0.0
53787.0,STARLINK-4743,PAYLOAD,2022-10-04 22:00:00,15.73218188,0.0001686,53.2166,149.028,153.8217,179.032,-0.00019778,-0.00028307,0.0,0 STARLINK-4743,1 53787U 22111Q   22277.91667824 -.00028307  00000-0 -19778-3 0  9997,2 53787  53.2166 149.0280 0001686 153.8217 179.0320 15.73218188  1307,6727.843000000003,91.532,350.843,348.574,0.0
53787.0,STARLINK-4743,PAYLOAD,2022-10-05 08:00:01,15.73209273,0.0001788,53.2167,146.9657,147.5489,26.4067,-0.00090521,-0.00125837,0.0,0 STARLINK-4743,1 53787U 22111Q   22278.33334491 -.00125837  00000-0 -90521-3 0  9996,2 53787  53.2167 146.9657 0001788 147.5489  26.4067 15.73209273  3755,6727.869000000002,91.533,350.93699999999984,348.531,0.0
53787.0,STARLINK-4743,PAYLOAD,2022-10-05 14:00:01,15.73104033,0.000204,53.2165,145.7277,146.4695,4.2309,0.00061556,0.00086308,0.0,0 STARLINK-4743,1 53787U 22111Q   22278.58335648  .00086308  00000-0  61556-3 0  9991,2 53787  53.2165 145.7277 0002040 146.4695   4.2309 15.73104033  1307,6728.169,91.539,351.406,348.661,0.0
53787.0,STARLINK-4743,PAYLOAD,2022-10-05 22:00:00,15.73162654,0.000187,53.2162,144.0806,141.4267,98.066,0.00052428,0.00073489,0.0,0 STARLINK-4743,1 53787U 22111Q   22278.91667824  .00073489  00000-0  52428-3 0  9996,2 53787  53.2162 144.0806 0001870 141.4267  98.0660 15.73162654  1308,6728.002,91.535,351.125,348.6090000000001,0.0
53787.0,STARLINK-4743,PAYLOAD,2022-10-06 14:00:01,15.7323335,0.0002063,53.2161,140.7795,148.011,269.3877,-0.00016549,-0.00023816,0.0,0 STARLINK-4743,1 53787U 22111Q   22279.58334491 -.00023816  00000-0 -16549-3 0  9996,2 53787  53.2161 140.7795 0002063 148.0110 269.3877 15.73233350  1307,6727.8,91.531,351.05300000000005,348.277,0.0
53787.0,STARLINK-4743,PAYLOAD,2022-10-06 22:42:55,15.73151384,0.0001869,53.2161,138.9848,141.2323,173.93,0.00063397,0.00089118,0.0,0 STARLINK-4743,1 53787U 22111Q   22279.94646991  .00089118  00000-0  63397-3 0  9995,2 53787  53.2161 138.9848 0001869 141.2323 173.9300 15.73151384  1306,6728.034000000002,91.536,351.156,348.641,0.0
53787.0,STARLINK-4743,PAYLOAD,2022-10-07 00:00:00,15.73143709,0.0001810999999999,53.2163,138.7201,140.8169,117.7516,0.00089989,0.00127299,0.0,0 STARLINK-4743,1 53787U 22111Q   22280.00001157  .00127299  00000-0  89989-3 0  9991,2 53787  53.2163 138.7201 0001811 140.8169 117.7516 15.73143709  4017,6728.056,91.536,351.139,348.702,0.0
53787.0,STARLINK-4743,PAYLOAD,2022-10-07 14:00:01,15.732378699999998,0.0001867,53.2159,135.8312,152.4859,171.6733,5.3438e-05,6.897e-05,0.0,0 STARLINK-4743,1 53787U 22111Q   22280.58334491  .00006897  00000-0  53438-4 0  9995,2 53787  53.2159 135.8312 0001867 152.4859 171.6733 15.73237870  4102,6727.7869999999975,91.531,350.908,348.396,0.0
53787.0,STARLINK-4743,PAYLOAD,2022-10-07 22:00:00,15.73253257,0.0001747,53.2154,134.1838,142.6359,270.5005,-9.2181e-05,-0.00013567,0.0,0 STARLINK-4743,1 53787U 22111Q   22280.91667824 -.00013567  00000-0 -92181-4 0  9993,2 53787  53.2154 134.1838 0001747 142.6359 270.5005 15.73253257  1302,6727.743,91.53,350.784,348.43300000000005,0.0
53787.0,STARLINK-4743,PAYLOAD,2022-10-08 14:00:01,15.73192282,0.0002032,53.2151,130.8824,147.6732,83.3988,8.6529e-05,0.00011536,0.0,0 STARLINK-4743,1 53787U 22111Q   22281.58334491  .00011536  00000-0  86529-4 0  9999,2 53787  53.2151 130.8824 0002032 147.6732  83.3988 15.73192282  1305,6727.917,91.534,351.149,348.415,0.0
53787.0,STARLINK-4743,PAYLOAD,2022-10-08 22:00:00,15.73183522,0.0001978,53.2164,129.2365,146.91299999999995,173.1193,-0.0011923,-0.00164621,0.0,0 STARLINK-4743,1 53787U 22111Q   22281.91667824 -.00164621  00000-0 -11923-2 0  9995,2 53787  53.2164 129.2365 0001978 146.9130 173.1193 15.73183522  4310,6727.941999999999,91.534,351.13800000000015,348.476,0.0
53787.0,STARLINK-4743,PAYLOAD,2022-10-09 06:00:00,15.73214161,0.0001539,53.2149,127.5842,155.8639,253.04,-0.00035947,-0.00050797,0.0,0 STARLINK-4743,1 53787U 22111Q   22282.25001157 -.00050797  00000-0 -35947-3 0  9995,2 53787  53.2149 127.5842 0001539 155.8639 253.0400 15.73214161  4368,6727.855,91.532,350.755,348.684,0.0
53787.0,STARLINK-4743,PAYLOAD,2022-10-09 14:00:01,15.73218064,0.0001769,53.2149,125.9337,150.8545,346.9749,-2.2527e-06,-9.37e-06,0.0,0 STARLINK-4743,1 53787U 22111Q   22282.58334491 -.00000937  00000-0 -22527-5 0  9994,2 53787  53.2149 125.9337 0001769 150.8545 346.9749 15.73218064  4426,6727.844,91.532,350.899,348.519,0.0
53787.0,STARLINK-4743,PAYLOAD,2022-10-09 22:00:00,15.73217455,0.0001615,53.2145,124.2863,139.6252,87.1519,0.0001361999999999,0.00018551,0.0,0 STARLINK-4743,1 53787U 22111Q   22282.91667824  .00018551  00000-0  13620-3 0  9991,2 53787  53.2145 124.2863 0001615 139.6252  87.1519 15.73217455  1304,6727.845,91.532,350.797,348.624,0.0
53787.0,STARLINK-4743,PAYLOAD,2022-10-10 14:00:01,15.73226591,0.0001889,53.2145,120.9851,146.2446,258.4815,-4.1811e-05,-6.492e-05,0.0,0 STARLINK-4743,1 53787U 22111Q   22283.58334491 -.00006492  00000-0 -41811-4 0  9993,2 53787  53.2145 120.9851 0001889 146.2446 258.4815 15.73226591  1309,6727.819,91.532,350.955,348.413,0.0
